{"type": "FeatureCollection", "features": [ {"type": "Feature", "properties": {"norad_id": 39019, "name": "PLEIADES 1B", "group": "resource", "lat": -75.43046077509081, "lon": -141.8470833853649, "alt_km": 705.9517850972661, "timestamp": "2025-12-25T07:00:33.699525+00:00", "meta": {"OBJECT_NAME": "PLEIADES 1B", "OBJECT_ID": "2012-068A", "EPOCH": "2025-12-24T23:14:41.545824", "MEAN_MOTION": 14.58562356, "ECCENTRICITY": 0.00011658, "INCLINATION": 98.1779, "RA_OF_ASC_NODE": 71.4266, "ARG_OF_PERICENTER": 87.7683, "MEAN_ANOMALY": 272.365, "EPHEMERIS_TYPE": 0, "CLASSIFICATION_TYPE": "U", "NORAD_CAT_ID": 39019, "ELEMENT_SET_NO": 999, "REV_AT_EPOCH": 69545, "BSTAR": 1.7203309e-05, "MEAN_MOTION_DOT": 3.4e-07, "MEAN_MOTION_DDOT": 0}, "tle": {"line1": "1 39019U 12068A   25358.96853641  .00000034  00000+0  17203-4 0  9997", "line2": "2 39019  98.1779  71.4266 0001165  87.7683 272.3650 14.58562356695452"}}, "geometry": {"type": "Point", "coordinates": [-141.8470833853649, -75.43046077509081]}}, {"type": "Feature", "properties": {"norad_id": 39030, "name": "GOKTURK 2", "group": "resource", "lat": 31.415386630911637, "lon": 25.060753948293694, "alt_km": 641.6981338226533, "timestamp": "2025-12-25T07:00:33.699535+00:00", "meta": {"OBJECT_NAME": "GOKTURK 2", "OBJECT_ID": "2012-073A", "EPOCH": "2025-12-24T23:49:44.351616", "MEAN_MOTION": 14.75308062, "ECCENTRICITY": 0.0001438, "INCLINATION": 97.6883, "RA_OF_ASC_NODE": 200.0437, "ARG_OF_PERICENTER": 106.6536, "MEAN_ANOMALY": 253.4831, "EPHEMERIS_TYPE": 0, "CLASSIFICATION_TYPE": "U", "NORAD_CAT_ID": 39030, "ELEMENT_SET_NO": 999, "REV_AT_EPOCH": 69882, "BSTAR": 0.00014442546, "MEAN_MOTION_DOT": 9.31e-06, "MEAN_MOTION_DDOT": 0}, "tle": {"line1": "1 39030U 12073A   25358.99287444  .00000931  00000+0  14443-3 0  9999", "line2": "2 39030  97.6883 200.0437 0001438 106.6536 253.4831 14.75308062698822"}}, "geometry": {"type": "Point", "coordinates": [25.060753948293694, 31.415386630911637]}}, {"type": "Feature", "properties": {"norad_id": 39084, "name": "LANDSAT 8", "group": "resource", "lat": 2.566190297953372, "lon": 66.80876617221546, "alt_km": 705.1347955738147, "timestamp": "2025-12-25T07:00:33.699551+00:00", "meta": {"OBJECT_NAME": "LANDSAT 8", "OBJECT_ID": "2013-008A", "EPOCH": "2025-12-24T21:06:32.761440", "MEAN_MOTION": 14.57114451, "ECCENTRICITY": 0.00010592, "INCLINATION": 98.2056, "RA_OF_ASC_NODE": 66.773, "ARG_OF_PERICENTER": 93.2103, "MEAN_ANOMALY": 266.9217, "EPHEMERIS_TYPE": 0, "CLASSIFICATION_TYPE": "U", "NORAD_CAT_ID": 39084, "ELEMENT_SET_NO": 999, "REV_AT_EPOCH": 67251, "BSTAR": 0.00010382243, "MEAN_MOTION_DOT": 4.23e-06, "MEAN_MOTION_DDOT": 0}, "tle": {"line1": "1 39084U 13008A   25358.87954585  .00000423  00000+0  10382-3 0  9995", "line2": "2 39084  98.2056  66.7730 0001059  93.2103 266.9217 14.57114451672515"}}, "geometry": {"type": "Point", "coordinates": [66.80876617221546, 2.566190297953372]}}, {"type": "Feature", "properties": {"norad_id": 39086, "name": "SARAL", "group": "resource", "lat": -30.020283506887115, "lon": -171.95449399118073, "alt_km": 789.3197945766024, "timestamp": "2025-12-25T07:00:33.699561+00:00", "meta": {"OBJECT_NAME": "SARAL", "OBJECT_ID": "2013-009A", "EPOCH": "2025-12-24T21:05:40.722720", "MEAN_MOTION": 14.32761139, "ECCENTRICITY": 0.00029602, "INCLINATION": 98.5503, "RA_OF_ASC_NODE": 182.6509, "ARG_OF_PERICENTER": 85.8193, "MEAN_ANOMALY": 274.333, "EPHEMERIS_TYPE": 0, "CLASSIFICATION_TYPE": "U", "NORAD_CAT_ID": 39086, "ELEMENT_SET_NO": 999, "REV_AT_EPOCH": 67064, "BSTAR": 6.2666299e-05, "MEAN_MOTION_DOT": 1.27e-06, "MEAN_MOTION_DDOT": 0}, "tle": {"line1": "1 39086U 13009A   25358.87894355  .00000127  00000+0  62666-4 0  9990", "line2": "2 39086  98.5503 182.6509 0002960  85.8193 274.3330 14.32761139670642"}}, "geometry": {"type": "Point", "coordinates": [-171.95449399118073, -30.020283506887115]}}, {"type": "Feature", "properties": {"norad_id": 39150, "name": "GAOFEN-1", "group": "resource", "lat": -76.15884738904919, "lon": 104.18710314964369, "alt_km": 660.7088395044566, "timestamp": "2025-12-25T07:00:33.699572+00:00", "meta": {"OBJECT_NAME": "GAOFEN-1", "OBJECT_ID": "2013-018A", "EPOCH": "2025-12-24T23:14:01.432032", "MEAN_MOTION": 14.76500578, "ECCENTRICITY": 0.00185398, "INCLINATION": 97.9311, "RA_OF_ASC_NODE": 69.4101, "ARG_OF_PERICENTER": 106.0253, "MEAN_ANOMALY": 254.3, "EPHEMERIS_TYPE": 0, "CLASSIFICATION_TYPE": "U", "NORAD_CAT_ID": 39150, "ELEMENT_SET_NO": 999, "REV_AT_EPOCH": 68253, "BSTAR": 0.00014537398, "MEAN_MOTION_DOT": 9.64e-06, "MEAN_MOTION_DDOT": 0}, "tle": {"line1": "1 39150U 13018A   25358.96807213  .00000964  00000+0  14537-3 0  9991", "line2": "2 39150  97.9311  69.4101 0018539 106.0253 254.3000 14.76500578682535"}}, "geometry": {"type": "Point", "coordinates": [104.18710314964369, -76.15884738904919]}}, {"type": "Feature", "properties": {"norad_id": 39160, "name": "VNREDSAT 1", "group": "resource", "lat": -1.2232419189447943, "lon": -126.04475732902111, "alt_km": 680.5469332248585, "timestamp": "2025-12-25T07:00:33.699582+00:00", "meta": {"OBJECT_NAME": "VNREDSAT 1", "OBJECT_ID": "2013-021B", "EPOCH": "2025-12-24T23:37:41.563776", "MEAN_MOTION": 14.64939407, "ECCENTRICITY": 0.00011891, "INCLINATION": 97.9352, "RA_OF_ASC_NODE": 53.8292, "ARG_OF_PERICENTER": 83.8712, "MEAN_ANOMALY": 276.2627, "EPHEMERIS_TYPE": 0, "CLASSIFICATION_TYPE": "U", "NORAD_CAT_ID": 39160, "ELEMENT_SET_NO": 999, "REV_AT_EPOCH": 67478, "BSTAR": 9.3848377e-05, "MEAN_MOTION_DOT": 4.57e-06, "MEAN_MOTION_DDOT": 0}, "tle": {"line1": "1 39160U 13021B   25358.98450884  .00000457  00000+0  93848-4 0  9996", "line2": "2 39160  97.9352  53.8292 0001189  83.8712 276.2627 14.64939407674784"}}, "geometry": {"type": "Point", "coordinates": [-126.04475732902111, -1.2232419189447943]}}, {"type": "Feature", "properties": {"norad_id": 39227, "name": "ARIRANG-5 (KOMPSAT-5)", "group": "resource", "lat": -64.41318847756901, "lon": -12.809935674145033, "alt_km": 562.0980873377848, "timestamp": "2025-12-25T07:00:33.699592+00:00", "meta": {"OBJECT_NAME": "ARIRANG-5 (KOMPSAT-5)", "OBJECT_ID": "2013-042A", "EPOCH": "2025-12-24T23:32:12.060096", "MEAN_MOTION": 15.04484269, "ECCENTRICITY": 0.0003053, "INCLINATION": 97.6163, "RA_OF_ASC_NODE": 183.1105, "ARG_OF_PERICENTER": 33.765, "MEAN_ANOMALY": 326.377, "EPHEMERIS_TYPE": 0, "CLASSIFICATION_TYPE": "U", "NORAD_CAT_ID": 39227, "ELEMENT_SET_NO": 999, "REV_AT_EPOCH": 67766, "BSTAR": 0.00018467783, "MEAN_MOTION_DOT": 2.524e-05, "MEAN_MOTION_DDOT": 0}, "tle": {"line1": "1 39227U 13042A   25358.98069514  .00002524  00000+0  18468-3 0  9990", "line2": "2 39227  97.6163 183.1105 0003053  33.7650 326.3770 15.04484269677664"}}, "geometry": {"type": "Point", "coordinates": [-12.809935674145033, -64.41318847756901]}}, {"type": "Feature", "properties": {"norad_id": 39418, "name": "SKYSAT-A", "group": "resource", "lat": -39.81896768087411, "lon": -137.1095133530353, "alt_km": 524.5061940496553, "timestamp": "2025-12-25T07:00:33.699602+00:00", "meta": {"OBJECT_NAME": "SKYSAT-A", "OBJECT_ID": "2013-066C", "EPOCH": "2025-12-24T15:44:27.881664", "MEAN_MOTION": 15.11686962, "ECCENTRICITY": 0.00216023, "INCLINATION": 97.4086, "RA_OF_ASC_NODE": 48.5017, "ARG_OF_PERICENTER": 193.6235, "MEAN_ANOMALY": 166.4415, "EPHEMERIS_TYPE": 0, "CLASSIFICATION_TYPE": "U", "NORAD_CAT_ID": 39418, "ELEMENT_SET_NO": 999, "REV_AT_EPOCH": 66210, "BSTAR": 0.00019275017, "MEAN_MOTION_DOT": 3.234e-05, "MEAN_MOTION_DDOT": 0}, "tle": {"line1": "1 39418U 13066C   25358.65587826  .00003234  00000+0  19275-3 0  9999", "line2": "2 39418  97.4086  48.5017 0021602 193.6235 166.4415 15.11686962662103"}}, "geometry": {"type": "Point", "coordinates": [-137.1095133530353, -39.81896768087411]}}, {"type": "Feature", "properties": {"norad_id": 39419, "name": "DUBAISAT-2", "group": "resource", "lat": -35.91772815265452, "lon": 163.87668935135193, "alt_km": 543.4080843586034, "timestamp": "2025-12-25T07:00:33.699612+00:00", "meta": {"OBJECT_NAME": "DUBAISAT-2", "OBJECT_ID": "2013-066D", "EPOCH": "2025-12-24T23:41:05.839296", "MEAN_MOTION": 15.08470308, "ECCENTRICITY": 0.00099137, "INCLINATION": 97.4463, "RA_OF_ASC_NODE": 349.017, "ARG_OF_PERICENTER": 273.3468, "MEAN_ANOMALY": 86.6626, "EPHEMERIS_TYPE": 0, "CLASSIFICATION_TYPE": "U", "NORAD_CAT_ID": 39419, "ELEMENT_SET_NO": 999, "REV_AT_EPOCH": 66011, "BSTAR": 0.00027267322, "MEAN_MOTION_DOT": 4.192e-05, "MEAN_MOTION_DDOT": 0}, "tle": {"line1": "1 39419U 13066D   25358.98687314  .00004192  00000+0  27267-3 0  9993", "line2": "2 39419  97.4463 349.0170 0009913 273.3468  86.6626 15.08470308660114"}}, "geometry": {"type": "Point", "coordinates": [163.87668935135193, -35.91772815265452]}}, {"type": "Feature", "properties": {"norad_id": 39574, "name": "GPM-CORE", "group": "resource", "lat": -38.227145102596424, "lon": 12.240092932167075, "alt_km": 432.3395848734817, "timestamp": "2025-12-25T07:00:33.699622+00:00", "meta": {"OBJECT_NAME": "GPM-CORE", "OBJECT_ID": "2014-009C", "EPOCH": "2025-12-24T20:43:24.779136", "MEAN_MOTION": 15.44649867, "ECCENTRICITY": 0.00091131, "INCLINATION": 64.9726, "RA_OF_ASC_NODE": 172.0809, "ARG_OF_PERICENTER": 250.5977, "MEAN_ANOMALY": 109.4179, "EPHEMERIS_TYPE": 0, "CLASSIFICATION_TYPE": "U", "NORAD_CAT_ID": 39574, "ELEMENT_SET_NO": 999, "REV_AT_EPOCH": 67088, "BSTAR": 0.00019570194, "MEAN_MOTION_DOT": 8.937e-05, "MEAN_MOTION_DDOT": 0}, "tle": {"line1": "1 39574U 14009C   25358.86348124  .00008937  00000+0  19570-3 0  9992", "line2": "2 39574  64.9726 172.0809 0009113 250.5977 109.4179 15.44649867670884"}}, "geometry": {"type": "Point", "coordinates": [12.240092932167075, -38.227145102596424]}}]}